     2.100          NAVIGATION                              RINEX VERSION / TYPE
fic2rin                                 10/20/2016 00:10:40 PGM / RUN BY / DATE
                                                            END OF HEADER
13 16 10 19  4  0  0.0 -.501396134496D-04 -.204636307899D-11  .000000000000D+00
     .970000000000D+02  .778750000000D+02  .408695595241D-08 -.299975441449D+01
     .388734042645D-05  .401985424105D-02  .118669122458D-04  .515369156075D+04
     .273600000000D+06  .614672899246D-07 -.258802849736D+01  .298023223877D-07
     .971006081958D+00  .154906250000D+03  .192830892834D+01 -.765710466343D-08
    -.971469037013D-10  .100000000000D+01  .191900000000D+04  .000000000000D+00
     .340000000000D+01  .000000000000D+00 -.111758708954D-07  .970000000000D+02
     .266406000000D+06  .400000000000D+01
14 16 10 19  4  0  0.0 -.408091582358D-04 -.193267624127D-11  .000000000000D+00
     .920000000000D+02  .690000000000D+02  .422196157593D-08 -.165375738264D+01
     .365637242794D-05  .872231996618D-02  .128671526909D-04  .515360195923D+04
     .273600000000D+06  .150874257088D-06 -.262599528843D+01  .577419996262D-07
     .963526812336D+00  .129656250000D+03 -.194515809464D+01 -.774210820417D-08
    -.164649715464D-09  .100000000000D+01  .191900000000D+04  .000000000000D+00
     .240000000000D+01  .000000000000D+00 -.931322574615D-08  .920000000000D+02
     .266406000000D+06  .400000000000D+01
15 16 10 19  4  0  0.0 -.331351067871D-03 -.136424205266D-11  .000000000000D+00
     .850000000000D+02  .423437500000D+02  .501306595718D-08 -.196546437188D+01
     .180117785931D-05  .862908107229D-02  .118259340525D-04  .515369012451D+04
     .273600000000D+06  .115483999252D-06 -.276701077802D+01 -.108033418655D-06
     .930505146657D+00  .133656250000D+03  .517207604938D+00 -.809890878063D-08
    -.158578033983D-09  .100000000000D+01  .191900000000D+04  .000000000000D+00
     .240000000000D+01  .000000000000D+00 -.107102096081D-07  .850000000000D+02
     .266406000000D+06  .400000000000D+01
16 16 10 19  4  0  0.0  .117318704724D-04  .170530256582D-11  .000000000000D+00
     .460000000000D+02 -.829375000000D+02  .417874549009D-08 -.268434067025D+00
    -.437162816525D-05  .871108309366D-02  .344030559063D-05  .515358247948D+04
     .273600000000D+06  .745058059692D-07 -.533804299366D+00  .147148966789D-06
     .990658477245D+00  .327250000000D+03  .383537852737D+00 -.829963142725D-08
    -.406088343781D-09  .100000000000D+01  .191900000000D+04  .000000000000D+00
     .240000000000D+01  .000000000000D+00 -.107102096081D-07  .460000000000D+02
     .266406000000D+06  .400000000000D+01
17 16 10 19  4  0  0.0 -.200792681426D-03  .682121026330D-12  .000000000000D+00
     .150000000000D+02 -.659687500000D+02  .393159233803D-08 -.123869954085D+01
    -.346079468727D-05  .113059674622D-01  .115670263767D-04  .515376371574D+04
     .273600000000D+06  .856816768646D-07  .485454894882D+00  .311061739922D-06
     .978073505030D+00  .167625000000D+03 -.191888443703D+01 -.776746640330D-08
    -.239295681911D-10  .100000000000D+01  .191900000000D+04  .000000000000D+00
     .240000000000D+01  .000000000000D+00 -.107102096081D-07  .150000000000D+02
     .266406000000D+06  .400000000000D+01
18 16 10 19  4  0  0.0  .568247400224D-03  .341060513165D-11  .000000000000D+00
     .260000000000D+02 -.294062500000D+02  .580024160334D-08  .339330057110D+00
    -.157952308655D-05  .172718326794D-01  .623054802418D-05  .515371209526D+04
     .273600000000D+06 -.322237610817D-06  .249652920793D+01  .502914190292D-07
     .925236584709D+00  .243468750000D+03 -.185548474347D+01 -.895180144989D-08
    -.390016245742D-09  .100000000000D+01  .191900000000D+04  .000000000000D+00
     .240000000000D+01  .000000000000D+00 -.111758708954D-07  .260000000000D+02
     .266406000000D+06  .400000000000D+01
21 16 10 19  4  0  0.0 -.532849226147D-03 -.227373675443D-12  .000000000000D+00
     .430000000000D+02  .231875000000D+02  .532343602819D-08  .129977475268D+01
     .875443220139D-06  .233410691144D-01  .859424471855D-05  .515380217934D+04
     .273600000000D+06 -.381842255592D-06  .145469708677D+01 -.348314642906D-06
     .937211451327D+00  .207687500000D+03 -.174926953098D+01 -.864143137887D-08
     .535379443560D-09  .100000000000D+01  .191900000000D+04  .000000000000D+00
     .240000000000D+01  .000000000000D+00 -.977888703346D-08  .430000000000D+02
     .266406000000D+06  .400000000000D+01
22 16 10 19  4  0  0.0  .214715953916D-03 -.104591890704D-10  .000000000000D+00
     .630000000000D+02 -.248125000000D+02  .569630870269D-08 -.173056416741D+01
    -.117719173431D-05  .737588701304D-02  .545941293240D-05  .515369005013D+04
     .273600000000D+06  .156462192535D-06  .249687227538D+01  .912696123123D-07
     .923193262659D+00  .248968750000D+03 -.185647696912D+01 -.862964517365D-08
    -.230723896291D-09  .100000000000D+01  .191900000000D+04  .000000000000D+00
     .240000000000D+01  .000000000000D+00 -.176951289177D-07  .630000000000D+02
     .266406000000D+06  .400000000000D+01
23 16 10 19  4  0  0.0 -.193841289729D-03 -.125055521494D-11  .000000000000D+00
     .900000000000D+01  .418750000000D+02  .461662087222D-08 -.247543558525D+01
     .187940895557D-05  .111402275506D-01  .124052166939D-04  .515360598946D+04
     .273600000000D+06  .279396772385D-07 -.270701404842D+01 -.145286321640D-06
     .945708199491D+00  .133656250000D+03 -.252695509810D+01 -.788461414011D-08
    -.115361948145D-09  .100000000000D+01  .191900000000D+04  .000000000000D+00
     .240000000000D+01  .000000000000D+00 -.200234353542D-07  .900000000000D+01
     .266406000000D+06  .400000000000D+01
24 16 10 19  4  0  0.0 -.248076394200D-04 -.568434188608D-12  .000000000000D+00
     .370000000000D+02  .132406250000D+03  .496592113626D-08 -.303372723293D+01
     .681169331074D-05  .479695724789D-02  .485219061375D-05  .515372624588D+04
     .273600000000D+06  .372529029846D-08 -.168196372472D+01 -.484287738800D-07
     .947584918578D+00  .281593750000D+03  .393219740095D+00 -.842856536929D-08
     .377515725045D-09  .100000000000D+01  .191900000000D+04  .000000000000D+00
     .240000000000D+01  .000000000000D+00  .232830643654D-08  .370000000000D+02
     .266406000000D+06  .400000000000D+01
25 16 10 19  4  0  0.0 -.266198068857D-03 -.693489710102D-11  .000000000000D+00
     .740000000000D+02 -.827500000000D+02  .454483216765D-08  .114828249480D+01
    -.425428152084D-05  .562079250813D-02  .295601785183D-05  .515368504333D+04
     .273600000000D+06 -.596046447754D-07 -.605233590386D+00  .135973095894D-06
     .978216857836D+00  .331062500000D+03  .773043954807D+00 -.847999608302D-08
    -.379658671450D-09  .100000000000D+01  .191900000000D+04  .000000000000D+00
     .340000000000D+01  .000000000000D+00  .558793544769D-08  .740000000000D+02
     .266406000000D+06  .400000000000D+01
26 16 10 19  4  0  0.0 -.488849356771D-03 -.579802872380D-11  .000000000000D+00
     .310000000000D+02 -.753437500000D+02  .490520432145D-08  .777537711452D+00
    -.395812094212D-05  .109323172364D-02  .221654772758D-05  .515359696007D+04
     .273600000000D+06 -.335276126862D-07 -.616754839755D+00  .558793544769D-08
     .960102782352D+00  .332750000000D+03 -.176460838942D+00 -.862250201896D-08
    -.369658254893D-09  .100000000000D+01  .191900000000D+04  .000000000000D+00
     .240000000000D+01  .000000000000D+00  .698491930962D-08  .310000000000D+02
     .266406000000D+06  .400000000000D+01
27 16 10 19  4  0  0.0  .153778120875D-03  .500222085975D-11  .000000000000D+00
     .570000000000D+02 -.949062500000D+02  .388801909446D-08 -.118391799571D+01
    -.488385558128D-05  .386764097493D-02  .119768083096D-04  .515366085815D+04
     .273600000000D+06  .838190317154D-07  .434738690829D+00 -.111758708954D-06
     .973035054244D+00  .158125000000D+03  .331571261880D+00 -.770817821942D-08
    -.264296723305D-10  .100000000000D+01  .191900000000D+04  .000000000000D+00
     .240000000000D+01  .000000000000D+00  .186264514923D-08  .570000000000D+02
     .266406000000D+06  .400000000000D+01
28 16 10 19  4  0  0.0  .560374464840D-03  .284217094304D-11  .000000000000D+00
     .440000000000D+02 -.740000000000D+02  .421803284086D-08 -.347553280555D+00
    -.385008752346D-05  .200046887621D-01  .437535345554D-05  .515363387108D+04
     .273600000000D+06 -.193715095520D-06 -.529007979077D+00  .223517417908D-07
     .989401922779D+00  .312031250000D+03 -.160842177226D+01 -.853714132049D-08
    -.303226916332D-09  .100000000000D+01  .191900000000D+04  .000000000000D+00
     .240000000000D+01  .000000000000D+00 -.107102096081D-07  .440000000000D+02
     .266406000000D+06  .400000000000D+01
29 16 10 19  4  0  0.0  .647096894681D-03 -.136424205266D-11  .000000000000D+00
     .680000000000D+02 -.815312500000D+02  .380122976505D-08  .832037148933D+00
    -.427849590778D-05  .510435667820D-03  .128038227558D-04  .515374073219D+04
     .273600000000D+06  .204890966415D-07  .495321253284D+00  .465661287308D-07
     .979093635843D+00  .140562500000D+03  .516467018753D-01 -.765567603249D-08
     .571452374714D-10  .100000000000D+01  .191900000000D+04  .000000000000D+00
     .340000000000D+01  .000000000000D+00 -.102445483208D-07  .680000000000D+02
     .266406000000D+06  .400000000000D+01
30 16 10 19  4  0  0.0  .154549255967D-03  .125055521494D-11  .000000000000D+00
     .350000000000D+02  .968125000000D+02  .504485299552D-08  .228527371827D+01
     .512041151524D-05  .240657397080D-02  .413320958614D-05  .515376424026D+04
     .273600000000D+06 -.745058059692D-07 -.159016632915D+01  .108033418655D-06
     .950264008733D+00  .295656250000D+03 -.312012954901D+01 -.855464204946D-08
     .303941231801D-09  .100000000000D+01  .191900000000D+04  .000000000000D+00
     .240000000000D+01  .000000000000D+00  .372529029846D-08  .350000000000D+02
     .266406000000D+06  .400000000000D+01
